start=new Date('2023-05-08T00:00:00.000Z').valueOf();
sats=[{"NORAD_CAT_ID":"48095","GP_ID":"231428134","MEAN_MOTION":"15.06398610","PERIAPSIS":"546.208","CLASSIFICATION_TYPE":"U","ELEMENT_SET_NO":"999","DECAY_DATE":null,"BSTAR":"0.00022166000000","RA_OF_ASC_NODE":"146.5256","MEAN_ELEMENT_THEORY":"SGP4","MEAN_MOTION_DDOT":"0.0000000000000","FILE":"3903413","MEAN_ANOMALY":"273.5001","TLE_LINE1":"1 48095U 21027D   23127.77236640  .00003022  00000-0  22166-3 0  9995","CENTER_NAME":"EARTH","TLE_LINE2":"2 48095  53.0527 146.5256 0001458  86.6155 273.5001 15.06398610116148","ARG_OF_PERICENTER":"86.6155","APOAPSIS":"548.228","ECCENTRICITY":"0.00014580","PERIOD":"95.592","COUNTRY_CODE":"US","OBJECT_ID":"2021-027D","INCLINATION":"53.0527","OBJECT_NAME":"STARLINK-2414","LAUNCH_DATE":"2021-04-07","OBJECT_TYPE":"PAYLOAD","REF_FRAME":"TEME","RCS_SIZE":"MEDIUM","MEAN_MOTION_DOT":"0.00003022","REV_AT_EPOCH":"11614","SITE":"AFETR","EPOCH":"2023-05-07T18:32:12.456960","TIME_SYSTEM":"UTC","EPHEMERIS_TYPE":"0","SEMIMAJOR_AXIS":"6925.353"},{"MEAN_ELEMENT_THEORY":"SGP4","MEAN_MOTION_DDOT":"0.0000000000000","FILE":"3903413","MEAN_ANOMALY":"263.0406","TLE_LINE1":"1 48096U 21027E   23127.74656062  .00002802  00000-0  20692-3 0  9994","CENTER_NAME":"EARTH","NORAD_CAT_ID":"48096","GP_ID":"231428886","MEAN_MOTION":"15.06401080","CLASSIFICATION_TYPE":"U","PERIAPSIS":"546.163","ELEMENT_SET_NO":"999","DECAY_DATE":null,"BSTAR":"0.00020692000000","RA_OF_ASC_NODE":"146.6373","RCS_SIZE":"LARGE","MEAN_MOTION_DOT":"0.00002802","REV_AT_EPOCH":"11612","SITE":"AFETR","EPOCH":"2023-05-07T17:55:02.837568","TIME_SYSTEM":"UTC","EPHEMERIS_TYPE":"0","SEMIMAJOR_AXIS":"6925.345","TLE_LINE2":"2 48096  53.0518 146.6373 0001512  97.0754 263.0406 15.06401080116129","ARG_OF_PERICENTER":"97.0754","APOAPSIS":"548.257","ECCENTRICITY":"0.00015120","PERIOD":"95.592","COUNTRY_CODE":"US","INCLINATION":"53.0518","OBJECT_ID":"2021-027E","OBJECT_NAME":"STARLINK-2417","LAUNCH_DATE":"2021-04-07","OBJECT_TYPE":"PAYLOAD","REF_FRAME":"TEME"},{"TLE_LINE1":"1 48097U 21027F   23127.72629705  .00001299  00000-0  10612-3 0  9997","CENTER_NAME":"EARTH","FILE":"3903413","MEAN_ANOMALY":"264.8078","MEAN_ELEMENT_THEORY":"SGP4","MEAN_MOTION_DDOT":"0.0000000000000","RA_OF_ASC_NODE":"126.7227","DECAY_DATE":null,"BSTAR":"0.00010612000000","GP_ID":"231428637","MEAN_MOTION":"15.06395119","PERIAPSIS":"546.428","CLASSIFICATION_TYPE":"U","ELEMENT_SET_NO":"999","NORAD_CAT_ID":"48097","EPHEMERIS_TYPE":"0","SEMIMAJOR_AXIS":"6925.364","SITE":"AFETR","EPOCH":"2023-05-07T17:25:52.065120","TIME_SYSTEM":"UTC","REV_AT_EPOCH":"11640","MEAN_MOTION_DOT":"0.00001299","RCS_SIZE":"LARGE","OBJECT_TYPE":"PAYLOAD","REF_FRAME":"TEME","LAUNCH_DATE":"2021-04-07","APOAPSIS":"548.029","ECCENTRICITY":"0.00011560","PERIOD":"95.592","OBJECT_ID":"2021-027F","COUNTRY_CODE":"US","INCLINATION":"53.0525","OBJECT_NAME":"STARLINK-2418","TLE_LINE2":"2 48097  53.0525 126.7227 0001156  95.3043 264.8078 15.06395119116401","ARG_OF_PERICENTER":"95.3043"},{"TIME_SYSTEM":"UTC","SITE":"AFETR","EPOCH":"2023-05-07T07:19:26.650848","SEMIMAJOR_AXIS":"6925.339","EPHEMERIS_TYPE":"0","RCS_SIZE":"LARGE","MEAN_MOTION_DOT":"0.00001392","REV_AT_EPOCH":"11619","LAUNCH_DATE":"2021-04-07","REF_FRAME":"TEME","OBJECT_TYPE":"PAYLOAD","ARG_OF_PERICENTER":"102.6233","TLE_LINE2":"2 48098  53.0538 138.6172 0001089 102.6233 257.4878 15.06403157116199","PERIOD":"95.592","OBJECT_NAME":"STARLINK-2421","COUNTRY_CODE":"US","INCLINATION":"53.0538","OBJECT_ID":"2021-027G","APOAPSIS":"547.958","ECCENTRICITY":"0.00010890","TLE_LINE1":"1 48098U 21027G   23127.30516957  .00001392  00000-0  11232-3 0  9999","CENTER_NAME":"EARTH","MEAN_MOTION_DDOT":"0.0000000000000","MEAN_ELEMENT_THEORY":"SGP4","MEAN_ANOMALY":"257.4878","FILE":"3903215","BSTAR":"0.00011232000000","DECAY_DATE":null,"RA_OF_ASC_NODE":"138.6172","NORAD_CAT_ID":"48098","CLASSIFICATION_TYPE":"U","PERIAPSIS":"546.450","ELEMENT_SET_NO":"999","GP_ID":"231396554","MEAN_MOTION":"15.06403157"},{"SITE":"AFETR","EPOCH":"2023-05-07T18:10:57.933408","TIME_SYSTEM":"UTC","EPHEMERIS_TYPE":"0","SEMIMAJOR_AXIS":"6925.320","RCS_SIZE":"LARGE","MEAN_MOTION_DOT":"0.00005308","REV_AT_EPOCH":"11612","LAUNCH_DATE":"2021-04-07","OBJECT_TYPE":"PAYLOAD","REF_FRAME":"TEME","TLE_LINE2":"2 48099  53.0517 146.5801 0001129  85.6669 274.4449 15.06409423116120","ARG_OF_PERICENTER":"85.6669","APOAPSIS":"547.967","ECCENTRICITY":"0.00011290","PERIOD":"95.592","INCLINATION":"53.0517","COUNTRY_CODE":"US","OBJECT_NAME":"STARLINK-2428","OBJECT_ID":"2021-027H","CENTER_NAME":"EARTH","TLE_LINE1":"1 48099U 21027H   23127.75761497  .00005308  00000-0  37489-3 0  9993","MEAN_ELEMENT_THEORY":"SGP4","MEAN_MOTION_DDOT":"0.0000000000000","FILE":"3903413","MEAN_ANOMALY":"274.4449","BSTAR":"0.00037489000000","DECAY_DATE":null,"RA_OF_ASC_NODE":"146.5801","NORAD_CAT_ID":"48099","GP_ID":"231427635","MEAN_MOTION":"15.06409423","PERIAPSIS":"546.403","CLASSIFICATION_TYPE":"U","ELEMENT_SET_NO":"999"},{"MEAN_MOTION_DDOT":"0.0000000000000","MEAN_ELEMENT_THEORY":"SGP4","MEAN_ANOMALY":"271.0816","FILE":"3903413","CENTER_NAME":"EARTH","TLE_LINE1":"1 48100U 21027J   23127.71891905  .00000974  00000-0  84250-4 0  9993","NORAD_CAT_ID":"48100","PERIAPSIS":"546.384","CLASSIFICATION_TYPE":"U","ELEMENT_SET_NO":"999","GP_ID":"231428387","MEAN_MOTION":"15.06399309","BSTAR":"0.00008425000000","DECAY_DATE":null,"RA_OF_ASC_NODE":"126.7615","MEAN_MOTION_DOT":"0.00000974","RCS_SIZE":"LARGE","REV_AT_EPOCH":"11640","TIME_SYSTEM":"UTC","SITE":"AFETR","EPOCH":"2023-05-07T17:15:14.605920","SEMIMAJOR_AXIS":"6925.351","EPHEMERIS_TYPE":"0","ARG_OF_PERICENTER":"89.0311","TLE_LINE2":"2 48100  53.0541 126.7615 0001201  89.0311 271.0816 15.06399309116409","PERIOD":"95.592","COUNTRY_CODE":"US","INCLINATION":"53.0541","OBJECT_ID":"2021-027J","OBJECT_NAME":"STARLINK-2430","ECCENTRICITY":"0.00012010","APOAPSIS":"548.047","LAUNCH_DATE":"2021-04-07","REF_FRAME":"TEME","OBJECT_TYPE":"PAYLOAD"},{"RA_OF_ASC_NODE":"138.6207","BSTAR":"0.00028984000000","DECAY_DATE":null,"GP_ID":"231396804","MEAN_MOTION":"15.06410205","CLASSIFICATION_TYPE":"U","PERIAPSIS":"546.410","ELEMENT_SET_NO":"999","NORAD_CAT_ID":"48101","TLE_LINE1":"1 48101U 21027K   23127.30422440  .00004040  00000-0  28984-3 0  9992","CENTER_NAME":"EARTH","FILE":"3903215","MEAN_ANOMALY":"273.5452","MEAN_ELEMENT_THEORY":"SGP4","MEAN_MOTION_DDOT":"0.0000000000000","OBJECT_TYPE":"PAYLOAD","REF_FRAME":"TEME","LAUNCH_DATE":"2021-04-07","ECCENTRICITY":"0.00011150","APOAPSIS":"547.954","PERIOD":"95.591","COUNTRY_CODE":"US","OBJECT_ID":"2021-027K","INCLINATION":"53.0520","OBJECT_NAME":"STARLINK-2436","TLE_LINE2":"2 48101  53.0520 138.6207 0001115  86.5664 273.5452 15.06410205116203","ARG_OF_PERICENTER":"86.5664","EPHEMERIS_TYPE":"0","SEMIMAJOR_AXIS":"6925.317","SITE":"AFETR","EPOCH":"2023-05-07T07:18:04.988160","TIME_SYSTEM":"UTC","REV_AT_EPOCH":"11620","RCS_SIZE":"LARGE","MEAN_MOTION_DOT":"0.00004040"},{"CENTER_NAME":"EARTH","TLE_LINE1":"1 48102U 21027L   23127.28030058  .00006337  00000-0  44378-3 0  9996","MEAN_MOTION_DDOT":"0.0000000000000","MEAN_ELEMENT_THEORY":"SGP4","MEAN_ANOMALY":"283.9139","FILE":"3903215","BSTAR":"0.00044378000000","DECAY_DATE":null,"RA_OF_ASC_NODE":"128.7301","NORAD_CAT_ID":"48102","PERIAPSIS":"546.355","CLASSIFICATION_TYPE":"U","ELEMENT_SET_NO":"999","GP_ID":"231397054","MEAN_MOTION":"15.06415181","TIME_SYSTEM":"UTC","SITE":"AFETR","EPOCH":"2023-05-07T06:43:37.970112","SEMIMAJOR_AXIS":"6925.302","EPHEMERIS_TYPE":"0","MEAN_MOTION_DOT":"0.00006337","RCS_SIZE":"LARGE","REV_AT_EPOCH":"11633","LAUNCH_DATE":"2021-04-07","REF_FRAME":"TEME","OBJECT_TYPE":"PAYLOAD","ARG_OF_PERICENTER":"76.1981","TLE_LINE2":"2 48102  53.0534 128.7301 0001173  76.1981 283.9139 15.06415181116334","PERIOD":"95.591","COUNTRY_CODE":"US","INCLINATION":"53.0534","OBJECT_NAME":"STARLINK-2437","OBJECT_ID":"2021-027L","ECCENTRICITY":"0.00011730","APOAPSIS":"547.979"},{"TLE_LINE1":"1 48103U 21027M   23127.72022407  .00012427  00000-0  69773-3 0  9998","CENTER_NAME":"EARTH","MEAN_ANOMALY":"342.7430","FILE":"3903413","MEAN_MOTION_DDOT":"0.0000000000000","MEAN_ELEMENT_THEORY":"SGP4","RA_OF_ASC_NODE":"124.3297","BSTAR":"0.00069773000000","DECAY_DATE":null,"ELEMENT_SET_NO":"999","CLASSIFICATION_TYPE":"U","PERIAPSIS":"520.347","MEAN_MOTION":"15.13685610","GP_ID":"231428135","NORAD_CAT_ID":"48103","SEMIMAJOR_AXIS":"6903.109","EPHEMERIS_TYPE":"0","TIME_SYSTEM":"UTC","EPOCH":"2023-05-07T17:17:07.359648","SITE":"AFETR","REV_AT_EPOCH":"11643","MEAN_MOTION_DOT":"0.00012427","RCS_SIZE":"MEDIUM","REF_FRAME":"TEME","OBJECT_TYPE":"PAYLOAD","LAUNCH_DATE":"2021-04-07","OBJECT_ID":"2021-027M","COUNTRY_CODE":"US","INCLINATION":"53.0503","OBJECT_NAME":"STARLINK-2438","PERIOD":"95.132","APOAPSIS":"529.601","ECCENTRICITY":"0.00067030","ARG_OF_PERICENTER":"17.3791","TLE_LINE2":"2 48103  53.0503 124.3297 0006703  17.3791 342.7430 15.13685610116430"},{"REV_AT_EPOCH":"11627","RCS_SIZE":"LARGE","MEAN_MOTION_DOT":"0.00002100","SEMIMAJOR_AXIS":"6925.336","EPHEMERIS_TYPE":"0","TIME_SYSTEM":"UTC","SITE":"AFETR","EPOCH":"2023-05-07T07:12:08.743680","PERIOD":"95.592","OBJECT_ID":"2021-027N","COUNTRY_CODE":"US","INCLINATION":"53.0527","OBJECT_NAME":"STARLINK-2439","ECCENTRICITY":"0.00012890","APOAPSIS":"548.093","ARG_OF_PERICENTER":"95.5782","TLE_LINE2":"2 48104  53.0527 133.6396 0001289  95.5782 264.5354 15.06404229116277","REF_FRAME":"TEME","OBJECT_TYPE":"PAYLOAD","LAUNCH_DATE":"2021-04-07","MEAN_ANOMALY":"264.5354","FILE":"3903215","MEAN_MOTION_DDOT":"0.0000000000000","MEAN_ELEMENT_THEORY":"SGP4","CENTER_NAME":"EARTH","TLE_LINE1":"1 48104U 21027N   23127.30010120  .00002100  00000-0  15984-3 0  9994","CLASSIFICATION_TYPE":"U","PERIAPSIS":"546.308","ELEMENT_SET_NO":"999","GP_ID":"231397557","MEAN_MOTION":"15.06404229","NORAD_CAT_ID":"48104","RA_OF_ASC_NODE":"133.6396","BSTAR":"0.00015984000000","DECAY_DATE":null}];
